NORAD_CAT_ID,OBJECT_NAME,OBJECT_TYPE,EPOCH,MEAN_MOTION,ECCENTRICITY,INCLINATION,RA_OF_ASC_NODE,ARG_OF_PERICENTER,MEAN_ANOMALY,BSTAR,MEAN_MOTION_DOT,MEAN_MOTION_DDOT,TLE_LINE0,TLE_LINE1,TLE_LINE2,SEMIMAJOR_AXIS,PERIOD,APOGEE,PERIGEE,DECAYED
52543.0,STARLINK-3926,PAYLOAD,2023-06-09 10:13:23,15.08835382,0.0001022,53.2171,317.4362,95.5053,264.6056,0.00011313,1.513e-05,0.0,0 STARLINK-3926,1 52543U 22051L   23160.42596524  .00001513  00000-0  11313-3 0  9990,2 52543  53.2171 317.4362 0001022  95.5053 264.6056 15.08835382 59903,6917.895,95.438,540.467,539.052,0.0
52543.0,STARLINK-3926,PAYLOAD,2023-06-09 16:34:55,15.08838974,0.0001141,53.2171,316.2475,96.145,263.9672,0.00010114,1.322e-05,0.0,0 STARLINK-3926,1 52543U 22051L   23160.69092454  .00001322  00000-0  10114-3 0  9998,2 52543  53.2171 316.2475 0001141  96.1450 263.9672 15.08838974 59877,6917.884,95.438,540.538,538.959,0.0
52543.0,STARLINK-3926,PAYLOAD,2023-06-10 13:14:56,15.08841553,0.0001006,53.2167,312.3812,109.6841,250.426,6.9292e-05,8.15e-06,0.0,0 STARLINK-3926,1 52543U 22051L   23161.55204288  .00000815  00000-0  69292-4 0  9992,2 52543  53.2167 312.3812 0001006 109.6841 250.4260 15.08841553 60006,6917.876,95.437,540.437,539.045,0.0
52543.0,STARLINK-3926,PAYLOAD,2023-06-10 19:36:28,15.08847321,0.0001048,53.2168,311.192,95.8075,264.3036,6.101e-05,6.84e-06,0.0,0 STARLINK-3926,1 52543U 22051L   23161.81699975  .00000684  00000-0  61010-4 0  9996,2 52543  53.2168 311.1920 0001048  95.8075 264.3036 15.08847321 60043,6917.858,95.437,540.448,538.998,0.0
52543.0,STARLINK-3926,PAYLOAD,2023-06-11 13:05:43,15.08840182,0.0001198,53.2164,307.9208,75.3612,284.7513,7.9446e-05,9.77e-06,0.0,0 STARLINK-3926,1 52543U 22051L   23162.54564572  .00000977  00000-0  79446-4 0  9998,2 52543  53.2164 307.9208 0001198  75.3612 284.7513 15.08840182 60153,6917.88,95.438,540.574,538.916,0.0
52543.0,STARLINK-3926,PAYLOAD,2023-06-11 16:16:29,15.08843747,0.0001166,53.2166,307.3257,79.4546,280.6578,0.00010665,1.41e-05,0.0,0 STARLINK-3926,1 52543U 22051L   23162.67812216  .00001410  00000-0  10665-3 0  9993,2 52543  53.2166 307.3257 0001166  79.4546 280.6578 15.08843747 60245,6917.869,95.437,540.541,538.927,0.0
52543.0,STARLINK-3926,PAYLOAD,2023-06-11 19:27:15,15.08847179,0.0001065,53.2171,306.7319,78.8803,281.2309,0.00012145,1.646e-05,0.0,0 STARLINK-3926,1 52543U 22051L   23162.81059853  .00001646  00000-0  12145-3 0  9995,2 52543  53.2171 306.7319 0001065  78.8803 281.2309 15.08847179 60196,6917.858,95.437,540.46,538.987,0.0
52543.0,STARLINK-3926,PAYLOAD,2023-06-12 16:07:16,15.08839568,0.0001213,53.2166,302.8656,75.5616,284.5511,7.5323e-05,9.11e-06,0.0,0 STARLINK-3926,1 52543U 22051L   23163.67172450  .00000911  00000-0  75323-4 0  9991,2 52543  53.2166 302.8656 0001213  75.5616 284.5511 15.08839568 60398,6917.882,95.438,540.586,538.908,0.0
52543.0,STARLINK-3926,PAYLOAD,2023-06-13 09:36:31,15.08835351,0.0001141,53.2175,299.5958,68.4412,291.6701,2.9448e-05,1.81e-06,0.0,0 STARLINK-3926,1 52543U 22051L   23164.40036959  .00000181  00000-0  29448-4 0  9992,2 52543  53.2175 299.5958 0001141  68.4412 291.6701 15.08835351 60509,6917.895,95.438,540.549,538.97,0.0
52543.0,STARLINK-3926,PAYLOAD,2023-06-14 01:30:22,15.08842209,0.0001158,53.2172,296.619,63.5743,296.5368,3.2792e-05,2.34e-06,0.0,0 STARLINK-3926,1 52543U 22051L   23165.06276492  .00000234  00000-0  32792-4 0  9998,2 52543  53.2172 296.6190 0001158  63.5743 296.5368 15.08842209 60607,6917.874,95.437,540.54,538.938,0.0
52543.0,STARLINK-3926,PAYLOAD,2023-06-14 11:02:41,15.08840888,0.0001048,53.2174,294.8383,77.9419,282.1691,3.5474e-05,2.77e-06,0.0,0 STARLINK-3926,1 52543U 22051L   23165.46020668  .00000277  00000-0  35474-4 0  9991,2 52543  53.2174 294.8383 0001048  77.9419 282.1691 15.08840888 60599,6917.878,95.437,540.468,539.018,0.0
52543.0,STARLINK-3926,PAYLOAD,2023-06-14 18:59:37,15.0884588,0.0001072,53.2173,293.3513,74.9129,285.1982,5.5499e-05,5.96e-06,0.0,0 STARLINK-3926,1 52543U 22051L   23165.79140313  .00000596  00000-0  55499-4 0  9990,2 52543  53.2173 293.3513 0001072  74.9129 285.1982 15.08845880 60648,6917.862,95.437,540.469,538.986,0.0
52543.0,STARLINK-3926,PAYLOAD,2023-06-15 01:21:10,15.08835612,0.0001169,53.2166,292.1607,71.1659,288.946,-1.0404e-05,-4.53e-06,0.0,0 STARLINK-3926,1 52543U 22051L   23166.05637142 -.00000453  00000-0 -10404-4 0  9992,2 52543  53.2166 292.1607 0001169  71.1659 288.9460 15.08835612 60751,6917.894,95.438,540.568,538.95,0.0
52543.0,STARLINK-3926,PAYLOAD,2023-06-15 12:28:52,15.08833284,0.0001147,53.2162,290.0792,72.709,287.4028,1.9599e-05,2.4e-07,0.0,0 STARLINK-3926,1 52543U 22051L   23166.52005537  .00000024  00000-0  19599-4 0  9997,2 52543  53.2162 290.0792 0001147  72.7090 287.4028 15.08833284 60758,6917.901,95.438,540.559,538.972,0.0
52543.0,STARLINK-3926,PAYLOAD,2023-06-15 17:15:01,15.08838647,0.0001153,53.2172,289.1876,82.1335,277.9788,5.7054e-05,6.2e-06,0.0,0 STARLINK-3926,1 52543U 22051L   23166.71877125  .00000620  00000-0  57054-4 0  9998,2 52543  53.2172 289.1876 0001153  82.1335 277.9788 15.08838647 60783,6917.885,95.438,540.547,538.952,0.0
52543.0,STARLINK-3926,PAYLOAD,2023-06-16 12:19:38,15.08846711,8.81e-05,53.2174,285.619,77.4648,282.6443,0.00023879,3.515e-05,0.0,0 STARLINK-3926,1 52543U 22051L   23167.51364082  .00003515  00000-0  23879-3 0  9993,2 52543  53.2174 285.6190 0000881  77.4648 282.6443 15.08846711 60902,6917.86,95.437,540.334,539.115,0.0
52543.0,STARLINK-3926,PAYLOAD,2023-06-16 13:55:01,15.08854719,0.0001179,53.2174,285.3226,82.5066,277.606,0.0001899,2.737e-05,0.0,0 STARLINK-3926,1 52543U 22051L   23167.57987770  .00002737  00000-0  18990-3 0  9997,2 52543  53.2174 285.3226 0001179  82.5066 277.6060 15.08854719 60985,6917.835,95.437,540.516,538.885,0.0
52543.0,STARLINK-3926,PAYLOAD,2023-06-16 17:05:47,15.08863414,0.0001169,53.2165,284.7276,79.7955,280.3168,0.00037962,5.763e-05,0.0,0 STARLINK-3926,1 52543U 22051L   23167.71235497  .00005763  00000-0  37962-3 0  9997,2 52543  53.2165 284.7276 0001169  79.7955 280.3168 15.08863414 60934,6917.809,95.436,540.483,538.865,0.0
52543.0,STARLINK-3926,PAYLOAD,2023-06-17 01:02:44,15.08838448,0.0001127,53.2168,283.24,88.3039,271.8083,7.0832e-05,8.4e-06,0.0,0 STARLINK-3926,1 52543U 22051L   23168.04356704  .00000840  00000-0  70832-4 0  9994,2 52543  53.2168 283.2400 0001127  88.3039 271.8083 15.08838448 61057,6917.885,95.438,540.53,538.97,0.0
52543.0,STARLINK-3926,PAYLOAD,2023-06-17 13:45:49,15.08833402,0.0001821,53.2171,280.8638,84.3948,275.7252,-3.8324e-05,-8.98e-06,0.0,0 STARLINK-3926,1 52543U 22051L   23168.57349283 -.00000898  00000-0 -38324-4 0  9991,2 52543  53.2171 280.8638 0001821  84.3948 275.7252 15.08833402 61060,6917.901,95.438,541.025,538.506,0.0
52543.0,STARLINK-3926,PAYLOAD,2023-06-17 16:56:36,15.08830498,0.0001033,53.2158,280.2661,98.9051,261.2059,-7.879e-05,-1.541e-05,0.0,0 STARLINK-3926,1 52543U 22051L   23168.70597373 -.00001541  00000-0 -78790-4 0  9998,2 52543  53.2158 280.2661 0001033  98.9051 261.2059 15.08830498 61153,6917.909,95.438,540.489,539.06,0.0
52543.0,STARLINK-3926,PAYLOAD,2023-06-18 07:15:04,15.08840176,9.45e-05,53.2157,277.5898,106.6219,253.4877,0.0010699,0.00016781,0.0,0 STARLINK-3926,1 52543U 22051L   23169.30213647  .00016781  00000-0  10699-2 0  9996,2 52543  53.2157 277.5898 0000945 106.6219 253.4877 15.08840176 61242,6917.88,95.438,540.399,539.091,0.0
52543.0,STARLINK-3926,PAYLOAD,2023-06-18 13:36:36,15.08855874,9.14e-05,53.2156,276.4011,101.2992,258.8103,0.0012671,0.00019944,0.0,0 STARLINK-3926,1 52543U 22051L   23169.56709375  .00019944  00000-0  12671-2 0  9998,2 52543  53.2156 276.4011 0000914 101.2992 258.8103 15.08855874 61210,6917.832,95.437,540.329,539.065,0.0
52543.0,STARLINK-3926,PAYLOAD,2023-06-18 16:47:23,15.08862161,8.89e-05,53.2157,275.8072,94.3212,265.7882,0.0013001,0.00020476,0.0,0 STARLINK-3926,1 52543U 22051L   23169.69957201  .00020476  00000-0  13001-2 0  9995,2 52543  53.2157 275.8072 0000889  94.3212 265.7882 15.08862161 61239,6917.813,95.436,540.293,539.063,0.0
52543.0,STARLINK-3926,PAYLOAD,2023-06-19 13:27:23,15.08859971,0.0001405,53.2156,271.9412,86.8351,273.2802,0.0013984,0.0002205,0.0,0 STARLINK-3926,1 52543U 22051L   23170.56069240  .00022050  00000-0  13984-2 0  9990,2 52543  53.2156 271.9412 0001405  86.8351 273.2802 15.08859971 61363,6917.819,95.436,540.656,538.712,0.0
52543.0,STARLINK-3926,PAYLOAD,2023-06-19 18:13:33,15.08862208,6.98e-05,53.2161,271.0495,63.8857,296.2207,0.0013534,0.0002133,0.0,0 STARLINK-3926,1 52543U 22051L   23170.75941004  .00021330  00000-0  13534-2 0  9999,2 52543  53.2161 271.0495 0000698  63.8857 296.2207 15.08862208 61394,6917.813,95.436,540.16,539.195,0.0
52543.0,STARLINK-3926,PAYLOAD,2023-06-20 13:18:09,15.08870882,9.58e-05,53.2157,267.4808,73.785,286.3248,0.0010944,0.00017187,0.0,0 STARLINK-3926,1 52543U 22051L   23171.55428098  .00017187  00000-0  10944-2 0  9998,2 52543  53.2157 267.4808 0000958  73.7850 286.3248 15.08870882 61581,6917.786,95.436,540.314,538.988,0.0
52543.0,STARLINK-3926,PAYLOAD,2023-06-20 22:50:28,15.08872128,3.7e-05,53.216,265.6988,31.078,329.0234,0.00079111,0.00012336,0.0,0 STARLINK-3926,1 52543U 22051L   23171.95171390  .00012336  00000-0  79111-3 0  9995,2 52543  53.2160 265.6988 0000370  31.0780 329.0234 15.08872128 61643,6917.782,95.436,539.903,539.391,0.0
52543.0,STARLINK-3926,PAYLOAD,2023-06-21 13:08:56,15.08847269,0.0001121,53.2162,263.0223,85.6898,274.4223,0.00012904,1.767e-05,0.0,0 STARLINK-3926,1 52543U 22051L   23172.54787744  .00001767  00000-0  12904-3 0  9990,2 52543  53.2162 263.0223 0001121  85.6898 274.4223 15.08847269 61738,6917.858,95.437,540.499,538.948,0.0
52543.0,STARLINK-3926,PAYLOAD,2023-06-22 09:48:58,15.08830274,0.0001256,53.2154,259.1597,98.8049,261.3085,7.0843e-05,8.4e-06,0.0,0 STARLINK-3926,1 52543U 22051L   23173.40900853  .00000840  00000-0  70843-4 0  9992,2 52543  53.2154 259.1597 0001256  98.8049 261.3085 15.08830274 61865,6917.91,95.438,540.644,538.906,0.0
